EUTELSAT 7A             
1 28187U 04008A   25333.47905345  .00000124  00000+0  00000+0 0  9996
2 28187   5.3215  74.3983 0001186 198.4053 189.0759  1.00272821 79350
EUTELSAT 174A           
1 28924U 05052A   25333.68384808  .00000031  00000+0  00000+0 0  9990
2 28924   3.7120  79.0034 0006391 168.5482 241.4551  1.00270350 50337
EUTELSAT HOTBIRD 13B    
1 29270U 06032A   25334.07267022  .00000177  00000+0  00000+0 0  9997
2 29270   1.1448  84.4747 0003587 158.6732 245.3191  1.00270065 45318
EUTELSAT HOTBIRD 13C    
1 33459U 08065A   25334.06998596 -.00000243  00000+0  00000+0 0  9990
2 33459   2.4359  81.5573 0001014 174.1570 161.3837  1.00050288 45348
EUTELSAT 36B            
1 36101U 09065A   25334.08740609  .00000133  00000+0  00000+0 0  9997
2 36101   0.0474  21.9966 0006238 228.5257 260.6713  1.00272228 58711
EUTELSAT KA-SAT 9A      
1 37258U 10069A   25334.07917270  .00000083  00000+0  00000+0 0  9990
2 37258   0.0545 326.5596 0001053 230.7752 269.4004  1.00269791 42019
EUTELSAT 7 WEST A       
1 37816U 11051A   25334.07596601 -.00000039  00000+0  00000+0 0  9995
2 37816   0.0625 357.2759 0006024 225.0166 226.9699  1.00271518 51882
EUTELSAT 16A            
1 37836U 11057A   25334.08055936  .00000125  00000+0  00000+0 0  9990
2 37836   0.0644  15.7435 0006035 240.7156 217.7524  1.00272486  5336
