{
  "type": "FeatureCollection",
  "features": [
    {
      "type": "Feature",
      "properties": {
        "OBJECT_NAME": "EUTELSAT 7A",
        "OBJECT_ID": "2004-008A",
        "EPOCH": "2025-11-29T11:29:50.218080",
        "MEAN_MOTION": 1.00272821,
        "ECCENTRICITY": 0.0001186,
        "INCLINATION": 5.3215,
        "RA_OF_ASC_NODE": 74.3983,
        "ARG_OF_PERICENTER": 198.4053,
        "MEAN_ANOMALY": 189.0759,
        "EPHEMERIS_TYPE": 0,
        "CLASSIFICATION_TYPE": "U",
        "NORAD_CAT_ID": 28187,
        "ELEMENT_SET_NO": 999,
        "REV_AT_EPOCH": 7935,
        "BSTAR": 0,
        "MEAN_MOTION_DOT": 1.24e-06,
        "MEAN_MOTION_DDOT": 0,
        "norad_id": 28187,
        "name": "EUTELSAT 7A",
        "group": "eutelsat",
        "longitude_deg": NaN,
        "latitude_deg": NaN,
        "alt_km": NaN,
        "orbit_class": "HEO",
        "timestamp": "2025-11-30T08:43:09.296976+00:00"
      },
      "geometry": {
        "type": "Point",
        "coordinates": [
          NaN,
          NaN
        ]
      }
    },
    {
      "type": "Feature",
      "properties": {
        "OBJECT_NAME": "EUTELSAT 174A",
        "OBJECT_ID": "2005-052A",
        "EPOCH": "2025-11-29T16:24:44.474112",
        "MEAN_MOTION": 1.0027035,
        "ECCENTRICITY": 0.0006391,
        "INCLINATION": 3.712,
        "RA_OF_ASC_NODE": 79.0034,
        "ARG_OF_PERICENTER": 168.5482,
        "MEAN_ANOMALY": 241.4551,
        "EPHEMERIS_TYPE": 0,
        "CLASSIFICATION_TYPE": "U",
        "NORAD_CAT_ID": 28924,
        "ELEMENT_SET_NO": 999,
        "REV_AT_EPOCH": 5033,
        "BSTAR": 0,
        "MEAN_MOTION_DOT": 3.1e-07,
        "MEAN_MOTION_DDOT": 0,
        "norad_id": 28924,
        "name": "EUTELSAT 174A",
        "group": "eutelsat",
        "longitude_deg": NaN,
        "latitude_deg": NaN,
        "alt_km": NaN,
        "orbit_class": "HEO",
        "timestamp": "2025-11-30T08:43:09.297288+00:00"
      },
      "geometry": {
        "type": "Point",
        "coordinates": [
          NaN,
          NaN
        ]
      }
    },
    {
      "type": "Feature",
      "properties": {
        "OBJECT_NAME": "EUTELSAT HOTBIRD 13B",
        "OBJECT_ID": "2006-032A",
        "EPOCH": "2025-11-30T01:44:38.707008",
        "MEAN_MOTION": 1.00270065,
        "ECCENTRICITY": 0.0003587,
        "INCLINATION": 1.1448,
        "RA_OF_ASC_NODE": 84.4747,
        "ARG_OF_PERICENTER": 158.6732,
        "MEAN_ANOMALY": 245.3191,
        "EPHEMERIS_TYPE": 0,
        "CLASSIFICATION_TYPE": "U",
        "NORAD_CAT_ID": 29270,
        "ELEMENT_SET_NO": 999,
        "REV_AT_EPOCH": 4531,
        "BSTAR": 0,
        "MEAN_MOTION_DOT": 1.77e-06,
        "MEAN_MOTION_DDOT": 0,
        "norad_id": 29270,
        "name": "EUTELSAT HOTBIRD 13B",
        "group": "eutelsat",
        "longitude_deg": NaN,
        "latitude_deg": NaN,
        "alt_km": NaN,
        "orbit_class": "HEO",
        "timestamp": "2025-11-30T08:43:09.297350+00:00"
      },
      "geometry": {
        "type": "Point",
        "coordinates": [
          NaN,
          NaN
        ]
      }
    },
    {
      "type": "Feature",
      "properties": {
        "OBJECT_NAME": "EUTELSAT HOTBIRD 13C",
        "OBJECT_ID": "2008-065A",
        "EPOCH": "2025-11-30T01:40:46.786944",
        "MEAN_MOTION": 1.00050288,
        "ECCENTRICITY": 0.0001014,
        "INCLINATION": 2.4359,
        "RA_OF_ASC_NODE": 81.5573,
        "ARG_OF_PERICENTER": 174.157,
        "MEAN_ANOMALY": 161.3837,
        "EPHEMERIS_TYPE": 0,
        "CLASSIFICATION_TYPE": "U",
        "NORAD_CAT_ID": 33459,
        "ELEMENT_SET_NO": 999,
        "REV_AT_EPOCH": 4534,
        "BSTAR": 0,
        "MEAN_MOTION_DOT": -2.43e-06,
        "MEAN_MOTION_DDOT": 0,
        "norad_id": 33459,
        "name": "EUTELSAT HOTBIRD 13C",
        "group": "eutelsat",
        "longitude_deg": NaN,
        "latitude_deg": NaN,
        "alt_km": NaN,
        "orbit_class": "HEO",
        "timestamp": "2025-11-30T08:43:09.298022+00:00"
      },
      "geometry": {
        "type": "Point",
        "coordinates": [
          NaN,
          NaN
        ]
      }
    },
    {
      "type": "Feature",
      "properties": {
        "OBJECT_NAME": "EUTELSAT 36B",
        "OBJECT_ID": "2009-065A",
        "EPOCH": "2025-11-30T02:05:51.886176",
        "MEAN_MOTION": 1.00272228,
        "ECCENTRICITY": 0.0006238,
        "INCLINATION": 0.0474,
        "RA_OF_ASC_NODE": 21.9966,
        "ARG_OF_PERICENTER": 228.5257,
        "MEAN_ANOMALY": 260.6713,
        "EPHEMERIS_TYPE": 0,
        "CLASSIFICATION_TYPE": "U",
        "NORAD_CAT_ID": 36101,
        "ELEMENT_SET_NO": 999,
        "REV_AT_EPOCH": 5871,
        "BSTAR": 0,
        "MEAN_MOTION_DOT": 1.33e-06,
        "MEAN_MOTION_DDOT": 0,
        "norad_id": 36101,
        "name": "EUTELSAT 36B",
        "group": "eutelsat",
        "longitude_deg": NaN,
        "latitude_deg": NaN,
        "alt_km": NaN,
        "orbit_class": "HEO",
        "timestamp": "2025-11-30T08:43:09.298314+00:00"
      },
      "geometry": {
        "type": "Point",
        "coordinates": [
          NaN,
          NaN
        ]
      }
    },
    {
      "type": "Feature",
      "properties": {
        "OBJECT_NAME": "EUTELSAT KA-SAT 9A",
        "OBJECT_ID": "2010-069A",
        "EPOCH": "2025-11-30T01:54:00.521280",
        "MEAN_MOTION": 1.00269791,
        "ECCENTRICITY": 0.0001053,
        "INCLINATION": 0.0545,
        "RA_OF_ASC_NODE": 326.5596,
        "ARG_OF_PERICENTER": 230.7752,
        "MEAN_ANOMALY": 269.4004,
        "EPHEMERIS_TYPE": 0,
        "CLASSIFICATION_TYPE": "U",
        "NORAD_CAT_ID": 37258,
        "ELEMENT_SET_NO": 999,
        "REV_AT_EPOCH": 4201,
        "BSTAR": 0,
        "MEAN_MOTION_DOT": 8.3e-07,
        "MEAN_MOTION_DDOT": 0,
        "norad_id": 37258,
        "name": "EUTELSAT KA-SAT 9A",
        "group": "eutelsat",
        "longitude_deg": NaN,
        "latitude_deg": NaN,
        "alt_km": NaN,
        "orbit_class": "HEO",
        "timestamp": "2025-11-30T08:43:09.298788+00:00"
      },
      "geometry": {
        "type": "Point",
        "coordinates": [
          NaN,
          NaN
        ]
      }
    },
    {
      "type": "Feature",
      "properties": {
        "OBJECT_NAME": "EUTELSAT 7 WEST A",
        "OBJECT_ID": "2011-051A",
        "EPOCH": "2025-11-30T01:49:23.463264",
        "MEAN_MOTION": 1.00271518,
        "ECCENTRICITY": 0.0006024,
        "INCLINATION": 0.0625,
        "RA_OF_ASC_NODE": 357.2759,
        "ARG_OF_PERICENTER": 225.0166,
        "MEAN_ANOMALY": 226.9699,
        "EPHEMERIS_TYPE": 0,
        "CLASSIFICATION_TYPE": "U",
        "NORAD_CAT_ID": 37816,
        "ELEMENT_SET_NO": 999,
        "REV_AT_EPOCH": 5188,
        "BSTAR": 0,
        "MEAN_MOTION_DOT": -3.9e-07,
        "MEAN_MOTION_DDOT": 0,
        "norad_id": 37816,
        "name": "EUTELSAT 7 WEST A",
        "group": "eutelsat",
        "longitude_deg": NaN,
        "latitude_deg": NaN,
        "alt_km": NaN,
        "orbit_class": "HEO",
        "timestamp": "2025-11-30T08:43:09.299039+00:00"
      },
      "geometry": {
        "type": "Point",
        "coordinates": [
          NaN,
          NaN
        ]
      }
    },
    {
      "type": "Feature",
      "properties": {
        "OBJECT_NAME": "EUTELSAT 16A",
        "OBJECT_ID": "2011-057A",
        "EPOCH": "2025-11-30T01:56:00.328704",
        "MEAN_MOTION": 1.00272486,
        "ECCENTRICITY": 0.0006035,
        "INCLINATION": 0.0644,
        "RA_OF_ASC_NODE": 15.7435,
        "ARG_OF_PERICENTER": 240.7156,
        "MEAN_ANOMALY": 217.7524,
        "EPHEMERIS_TYPE": 0,
        "CLASSIFICATION_TYPE": "U",
        "NORAD_CAT_ID": 37836,
        "ELEMENT_SET_NO": 999,
        "REV_AT_EPOCH": 533,
        "BSTAR": 0,
        "MEAN_MOTION_DOT": 1.25e-06,
        "MEAN_MOTION_DDOT": 0,
        "norad_id": 37836,
        "name": "EUTELSAT 16A",
        "group": "eutelsat",
        "longitude_deg": NaN,
        "latitude_deg": NaN,
        "alt_km": NaN,
        "orbit_class": "HEO",
        "timestamp": "2025-11-30T08:43:09.299070+00:00"
      },
      "geometry": {
        "type": "Point",
        "coordinates": [
          NaN,
          NaN
        ]
      }
    }
  ]
}